IRIDIUM 57              
1 25273U 98019B   25040.35978235  .00000751  00000+0  25350-3 0  9999
2 25273  86.3990 198.7581 0002064  93.8355 266.3078 14.35723129406447
IRIDIUM 63              
1 25286U 98021B   25040.35486470  .00000632  00000+0  20950-3 0  9990
2 25286  86.4022 135.7578 0001997  92.6880 267.4545 14.36371012405495
IRIDIUM 69              
1 25319U 98026A   25040.54974355  .00001050  00000+0  32242-3 0  9999
2 25319  86.4033 149.3357 0004372  90.6544 269.5156 14.40744043404689
IRIDIUM 71              
1 25320U 98026B   25040.57434440  .00000922  00000+0  28105-3 0  9990
2 25320  86.4026 144.0449 0003804 122.1810 237.9759 14.40963715405210
IRIDIUM 73              
1 25344U 98032C   25040.60238892  .00001072  00000+0  26360-3 0  9998
2 25344  86.4390 101.0237 0002887  88.5351 271.6185 14.51418497412055
IRIDIUM 82              
1 25467U 98051A   25040.62124343  .00027799  00000+0  98742-3 0  9999
2 25467  86.3750 172.0316 0100581  58.9883 302.1192 15.24113997404470
